INTELSAT 902 (IS-902)   
1 26900U 01039A   26202.46386785 -.00000286  00000+0  00000+0 0  9994
2 26900   6.2001  71.3592 0004288  48.8711 295.8907  1.00272833 91035
INTELSAT 904 (IS-904)   
1 27380U 02007A   26202.39626330 -.00000229  00000+0  00000+0 0  9995
2 27380   7.0029  68.7707 0005212  28.5165 313.0456  1.00273802 52105
DIRECTV 5 (TEMPO 1)     
1 27426U 02023A   26202.59452191 -.00000059  00000+0  00000+0 0  9999
2 27426   4.9634  74.8795 0003183  42.2842 286.1042  1.00271980 88463
INTELSAT 905 (IS-905)   
1 27438U 02027A   26202.33516854  .00000090  00000+0  00000+0 0  9999
2 27438   6.8372  69.3839 0003544  49.6066 163.5570  1.00272095 51703
GALAXY 3C (G-3C)        
1 27445U 02030A   26202.59755525 -.00000154  00000+0  00000+0 0  9991
2 27445   3.8209  77.5342 0001823  29.5309 312.5645  1.00271383 46838
INTELSAT 906 (IS-906)   
1 27513U 02041A   26202.62906459  .00000010  00000+0  00000+0 0  9997
2 27513   5.8863  72.4920 0003468  30.5032 127.0093  1.00271195 87371
GALAXY 13 (HORIZONS-1)  
1 27954U 03044A   26202.58663520  .00000133  00000+0  00000+0 0  9990
2 27954   1.5049  83.4139 0002078  42.0089 235.1169  1.00274149 46911
INTELSAT 10-02          
1 28358U 04022A   26202.61601535 -.00000009  00000+0  00000+0 0  9991
2 28358   0.0567 255.3582 0000157 276.7138 348.0632  1.00272371 80909
DIRECTV 8               
1 28659U 05019A   26202.52148767  .00000003  00000+0  00000+0 0  9998
2 28659   0.0161  72.4594 0003173  53.0042 242.4987  1.00273041 77412
GALAXY 28 (G-28)        
1 28702U 05022A   26202.39712998 -.00000201  00000+0  00000+0 0  9990
2 28702   3.3834  78.5078 0002321  38.3748 298.1444  1.00271993 52313
GALAXY 16 (G-16)        
1 29236U 06023A   26202.52538770 -.00000125  00000+0  00000+0 0  9999
2 29236   0.0258 134.1522 0002761 347.5281 267.7282  1.00271709 73318
DIRECTV 9S              
1 29494U 06043A   26202.59625525 -.00000114  00000+0  00000+0 0  9997
2 29494   2.5073  80.4886 0005169  34.3471 297.9648  1.00271833 51729
GALAXY 17 (G-17)        
1 31307U 07016B   26202.52816104 -.00000207  00000+0  00000+0 0  9995
2 31307   3.0559  79.4692 0003496  33.0749 291.8600  1.00272370 70143
INTELSAT 11 (IS-11)     
1 32253U 07044B   26202.46880787 -.00000240  00000+0  00000+0 0  9995
2 32253   3.6524  78.2532 0004512  98.9733 265.8392  0.99053133 68793
HORIZONS-2              
1 32388U 07063B   26202.60171528 -.00000254  00000+0  00000+0 0  9992
2 32388   2.6886  80.2052 0003678  20.2676 341.7043  1.00272339 68160
DIRECTV 11              
1 32729U 08013A   26202.45407446 -.00000124  00000+0  00000+0 0  9997
2 32729   0.0059 253.4699 0000090 221.0031 249.0102  1.00271098 45932
GALAXY 18 (G-18)        
1 32951U 08024A   26202.59192190  .00000000  00000+0  00000+0 0  9990
2 32951   0.0159  46.8173 0003119  78.3026 264.3293  1.00273138 46190
GALAXY 19 (G-19)        
1 33376U 08045A   26202.59712192 -.00000137  00000+0  00000+0 0  9997
2 33376   0.0630 253.5014 0002653 238.4681 285.3410  1.00271554 65246
FM-5                    
1 35493U 09034A   26202.59928860 -.00000198  00000+0  00000+0 0  9996
2 35493   0.0432 256.6959 0000832 127.5288  44.6986  1.00269756 46983
INTELSAT 14 (IS-14)     
1 36097U 09064A   26202.46482118 -.00000272  00000+0  00000+0 0  9990
2 36097   0.0098  70.5016 0002509  51.8475 299.2052  1.00271620 60946
INTELSAT 15 (IS-15)     
1 36106U 09067A   26202.63387117 -.00000183  00000+0  00000+0 0  9997
2 36106   0.0172  52.8180 0002336  66.1089 133.8057  1.00272323 41570
DIRECTV 12              
1 36131U 09075A   26202.40322435 -.00000102  00000+0  00000+0 0  9992
2 36131   0.0349 207.4484 0000256 354.9444 139.2075  1.00272457 46899
INTELSAT 16 (IS-16)     
1 36397U 10006A   26202.52998105 -.00000243  00000+0  00000+0 0  9994
2 36397   0.0153 326.3367 0002702 172.6825 274.8457  1.00270744 59995
XM-5                    
1 37185U 10053A   26202.25600182 -.00000022  00000+0  00000+0 0  9992
2 37185   0.0639 265.0101 0001167 315.7230  55.2492  1.00271974 57825
INTELSAT 17 (IS-17)     
1 37238U 10065B   26202.62941126  .00000000  00000+0  00000+0 0  9996
2 37238   0.0137  99.3462 0002578  35.0685  97.5654  1.00272998 53594
INTELSAT 28 (IS-28)     
1 37392U 11016A   26202.39617663 -.00000225  00000+0  00000+0 0  9994
2 37392   1.8924  82.2089 0003956  42.7581 285.1026  1.00271432 53629
INTELSAT 18 (IS-18)     
1 37834U 11056A   26202.58065517  .00000054  00000+0  00000+0 0  9994
2 37834   0.0173 304.0542 0001958 181.7952 202.5115  1.00271473 54158
INTELSAT 22 (IS-22)     
1 38098U 12011A   26202.63062461 -.00000057  00000+0  00000+0 0  9994
2 38098   0.0029 349.8655 0002005 152.5194  96.1253  1.00271445  7530
INTELSAT 19 (IS-19)     
1 38356U 12030A   26202.57788182 -.00000055  00000+0  00000+0 0  9998
2 38356   0.0177  46.9645 0003125  72.8930 193.5057  1.00272948 50790
INTELSAT 20 (IS-20)     
1 38740U 12043A   26202.62984459 -.00000023  00000+0  00000+0 0  9995
2 38740   0.0152  76.5840 0001391 107.7604  50.2866  1.00271803 51095
INTELSAT 21 (IS-21)     
1 38749U 12045A   26202.53353440 -.00000283  00000+0  00000+0 0  9994
2 38749   0.0392 252.2584 0001844 237.6549 303.4534  1.00271281 50861
INTELSAT 23 (IS-23)     
1 38867U 12057A   26202.46326117 -.00000283  00000+0  00000+0 0  9991
2 38867   0.0330 271.1664 0000205 281.9348 219.8942  1.00269807 50293
FM-6                    
1 39360U 13058A   26202.59330856 -.00000014  00000+0  00000+0 0  9993
2 39360   0.0081  32.7216 0001278 146.1239 217.7330  1.00269445 46416
INTELSAT 30 (IS-30)     
1 40271U 14062A   26202.59746859 -.00000149  00000+0  00000+0 0  9995
2 40271   0.0154  53.0187 0001650 344.2948  22.0820  1.00270383  7135
DIRECTV 14              
1 40333U 14078B   26202.26192147 -.00000124  00000+0  00000+0 0  9993
2 40333   0.0134  55.3576 0000393 345.1303 253.5798  1.00271967 42387
DIRECTV 15              
1 40663U 15026A   26202.26086314 -.00000102  00000+0  00000+0 0  9997
2 40663   0.0217  79.8049 0000392 342.4285 227.8140  1.00271805 40800
SKY MEXICO-1            
1 40664U 15026B   26202.52946104 -.00000233  00000+0  00000+0 0  9994
2 40664   0.0231 290.0620 0002663 204.0521 276.9784  1.00270760 40794
INTELSAT 34 (IS-34)     
1 40874U 15039A   26202.46274117 -.00000284  00000+0  00000+0 0  9998
2 40874   0.0115 346.9436 0000572  48.8228  14.5538  1.00271014 39973
INTELSAT 31 (IS-31)     
1 41581U 16035A   26202.63023006 -.00000149  00000+0  00000+0 0  9999
2 41581   0.0195 278.1031 0000959  35.3919 117.7253  1.00271004 37024
INTELSAT 36 (IS-36)     
1 41747U 16053A   26202.62984459 -.00000022  00000+0  00000+0 0  9990
2 41747   0.0099  29.8811 0002435 320.6101 244.1308  1.00272007 36302
INTELSAT 32E (IS-32E)   
1 41945U 17007B   26202.53613441 -.00000267  00000+0  00000+0 0  9991
2 41945   0.0120  30.5077 0000569  15.3316  43.2772  1.00270121 34577
INTELSAT 35E (IS-35E)   
1 42818U 17041A   26202.46690119  .00000000  00000+0  00000+0 0  9992
2 42818   0.0227  58.5568 0002193  60.8879 313.3792  1.00269704 33155
INTELSAT 37E (IS-37E)   
1 42950U 17059A   26202.61263534 -.00000139  00000+0  00000+0 0  9996
2 42950   0.0179  70.2582 0002878  54.3448  17.3140  1.00272510 32410
AZERSPACE 2 (IS-38)     
1 43632U 18074A   26202.62525125  .00000138  00000+0  00000+0 0  9998
2 43632   0.0182  61.0535 0001528  57.6940  90.8314  1.00272527 28795
HORIZONS-3E             
1 43633U 18074B   26202.57848850 -.00000029  00000+0  00000+0 0  9996
2 43633   0.0403 242.3038 0000403  61.3360  12.9358  1.00271974 28689
AT&T T-16               
1 44333U 19034A   26202.59634192 -.00000113  00000+0  00000+0 0  9999
2 44333   0.0147  76.3413 0000506 295.0648  41.7632  1.00269704 25975
INTELSAT 39 (IS-39)     
1 44476U 19049B   26202.66146116  .00000035  00000+0  00000+0 0  9997
2 44476   0.0128  29.3318 0000965 329.8620 240.2933  1.00271188 25473
GALAXY 30 (G-30)        
1 46114U 20056C   26202.59157523  .00000039  00000+0  00000+0 0  9998
2 46114   0.0168  64.3610 0002195  52.3892 270.5573  1.00270965 21630
GALAXY 33 (G-33)        
1 54026U 22128A   26202.59001522  .00000080  00000+0  00000+0 0  9994
2 54026   0.0126 333.0518 0001839 150.1534 255.5482  1.00276086 14085
GALAXY 34 (G-34)        
1 54027U 22128B   26202.27892093  .00000000  00000+0  00000+0 0  9993
2 54027   0.0185  51.6472 0001801  61.4659 157.3495  1.00274407 14251
GALAXY 31 (G-31)        
1 54243U 22153A   26202.59235523  .00000015  00000+0  00000+0 0  9991
2 54243   0.0048 247.1499 0001346 235.3527 269.0859  1.00273320  7474
GALAXY 32 (G-32)        
1 54244U 22153B   26202.59833527 -.00000172  00000+0  00000+0 0  9995
2 54244   0.0094  35.9806 0001486  18.2621   9.5143  1.00271821 13484
GALAXY 35 (G-35)        
1 54741U 22170A   26202.59790192 -.00000160  00000+0  00000+0 0  9993
2 54741   0.0083 293.9220 0001987 183.2891 304.2788  1.00270363 13231
GALAXY 36 (G-36)        
1 54742U 22170B   26202.59868193 -.00000183  00000+0  00000+0 0  9996
2 54742   0.0210 131.6980 0002763 329.3006 324.8799  1.00271632 13116
GALAXY 37 (G-37)        
1 57493U 23112A   26202.59114189  .00000050  00000+0  00000+0 0  9990
2 57493   0.0179  61.2071 0002088  56.2976 267.6512  1.00272881 10882
